0 DELTA 1 DEB
1 28266U 68055L   13278.70858149  .00001160  00000-0  50736-2 0  2579
2 28266 120.8124 160.1745 1731658 156.0759 213.1224 10.56978308389048
0 DELTA 1 DEB
1 28266U 68055L   13288.73513614  .00001137  00000-0  49916-2 0  2581
2 28266 120.8137 177.9922 1730681 161.3616 205.8757 10.57001795390107
0 DELTA 1 DEB
1 28266U 68055L   13290.72152045  .00001303  00000-0  56997-2 0  2593
2 28266 120.8165 181.5110 1729672 162.3185 204.5906 10.57008863390316
0 DELTA 1 DEB
1 28266U 68055L   13290.72155813  .00001203  00000-0  50480-2 0  2601
2 28266 120.8095 181.6153 1726968 162.1701 204.8670 10.57005826390310
0 DELTA 1 DEB
1 28266U 68055L   13292.70788008  .00000790  00000-0  35105-2 0  2606
2 28266 120.8184 184.9978 1734248 163.3586 203.1898 10.57010278390528
